MAKERSAT 0              
1 43016U 17073D   26043.60643448  .00024568  00000+0  76314-3 0  9990
2 43016  97.4829 285.5160 0120075 355.4113   4.6013 15.26480680447424
SIRION PATHFINDER-2     
1 43759U 18099B   26043.59227397  .00005490  00000+0  31239-3 0  9992
2 43759  97.4450  95.6091 0009329  21.2793 338.8825 15.13220642393778
CORVUS BC4              
1 43767U 18099K   26043.70075657  .00004564  00000+0  27419-3 0  9990
2 43767  97.4263  90.3061 0010075  74.7667 285.4676 15.11334096393599
SPACEBEE-7              
1 43816U 18099BL  26043.69508505  .00356601  00000+0  17034-2 0  9999
2 43816  97.4538 128.2807 0005691 274.7428  85.3191 15.81854295395230
SHIELDS 1               
1 43850U 18104B   26043.50416380  .06921989 -15212-5  25172-3 0  9997
2 43850  84.9817 217.5932 0008063 271.6012  88.4371 16.43688533400523
M2 PATHFINDER           
1 45727U 20037E   26043.46549741  .00004344  00000+0  31855-3 0  9991
2 45727  97.8158 233.3147 0011137 210.6122 149.4455 15.04003939306741
NETSAT-4                
1 46504U 20068U   26043.57164983  .00018212  00000+0  46826-3 0  9995
2 46504  97.8630  42.2178 0008057  58.9912 301.2123 15.39306108296579
NETSAT-3                
1 46505U 20068V   26043.80026707  .00019310  00000+0  51863-3 0  9990
2 46505  97.8660  40.8648 0008127  71.1930 289.0195 15.37947270296531
NETSAT-1                
1 46506U 20068W   26043.79284351  .00015338  00000+0  51108-3 0  9998
2 46506  97.8725  36.5482 0008023  85.2737 274.9419 15.31179829296249
NETSAT-2                
1 46507U 20068X   26043.47757781  .00026175  00000+0  65037-3 0  9993
2 46507  97.8642  41.6724 0007137  83.0072 277.1984 15.40278899296505
WILDTRACKCUBE-SIMBA     
1 47941U 21022K   26040.79499797  .00303886  35145-4  11259-2 0  9995
2 47941  97.3963 320.3905 0009080 112.0244 248.1993 15.88032976271383
GREENCUBE (IO-117)      
1 53109U 22080E   26043.83078621 -.00000003  00000+0  00000+0 0  9992
2 53109  70.1654 341.4916 0009141 316.3132  43.6803  6.42583123 84072
SITRO-AIS 5 (KATYS)     
1 57176U 23091L   26043.83911539  .00013502  00000+0  52095-3 0  9999
2 57176  97.5243 106.7350 0012363 175.5086 184.6265 15.26350188145356
SITRO-AIS 6 (CHIRKIN)   
1 57192U 23091AC  26043.83244034  .00007037  00000+0  29277-3 0  9998
2 57192  97.5246 106.4175 0012735 174.5137 185.6242 15.24013921145331
SITRO-AIS 8 (ANOKHIN)   
1 57193U 23091AD  26043.85733999  .00014936  00000+0  53940-3 0  9994
2 57193  97.5235 107.8877 0011649 172.7658 187.3751 15.28520136145435
SITRO-AIS 7 (FARTUSHNIY)
1 57194U 23091AE  26043.61616398  .00008658  00000+0  36182-3 0  9995
2 57194  97.5246 106.0813 0012504 176.5654 183.5670 15.23790932145298
SITRO-AIS 10 (BURDAEV)  
1 57199U 23091AK  26043.83700800  .00018862  00000+0  58101-3 0  9999
2 57199  97.5248 111.7788 0008246 150.2843 209.8869 15.33644068145679
SITRO-AIS 9 (SHCHUKIN)  
1 57201U 23091AM  26043.82936704  .00018805  00000+0  58570-3 0  9993
2 57201  97.5247 111.5843 0008271 150.9607 209.2097 15.33290684145662
SITRO-AIS 12 (SMIRENNIY)
1 57204U 23091AQ  26043.84166718  .00019103  00000+0  59036-3 0  9998
2 57204  97.5257 111.9927 0008192 144.9325 215.2458 15.33537137145682
SITRO-AIS 11 (SHEFFER)  
1 57208U 23091AU  26043.88539578  .00019129  00000+0  58523-3 0  9992
2 57208  97.5254 112.2157 0008110 144.8711 215.3067 15.33857749145704
SITRO-AIS 25            
1 59066U 24039R   26043.84683105  .00004542  00000+0  36008-3 0  9998
2 59066  95.3949 149.6938 0148821  43.1954 318.0830 14.92406617106175
SITRO-AIS 26            
1 59067U 24039S   26043.83214588  .00004715  00000+0  37527-3 0  9992
2 59067  95.3949 149.6051 0149061  43.6730 317.6177 14.92223177106162
SITRO-AIS 27            
1 59068U 24039T   26043.83603168  .00005135  00000+0  40512-3 0  9994
2 59068  95.3949 149.8245 0148175  42.5607 318.6990 14.92613527106184
SITRO-AIS 28            
1 59071U 24039U   26043.88337694  .00004515  00000+0  35651-3 0  9990
2 59071  95.3949 149.8978 0147956  42.1983 319.0518 14.92647430106192
GRBBETA                 
1 60237U 24128C   26043.80230279  .00004522  00000+0  31782-3 0  9997
2 60237  61.9906 292.3218 0053580 109.1635 251.5267 15.05492238 87534
OOV-CUBE (TUBSAT-30)    
1 60240U 24128F   26043.80015821  .00002736  00000+0  21643-3 0  9995
2 60240  61.9960 299.0943 0056362 107.2542 253.4727 15.02067046 87426
ROBUSTA-3A (MEDITERRAN*)
1 60243U 24128J   26043.82853597  .00008825  00000+0  54116-3 0  9996
2 60243  61.9871 287.3516 0054064 103.5653 257.1471 15.09581706 87636
LASARSAT                
1 62391U 24247Q   26043.57034770  .00029451  00000+0  76544-3 0  9997
2 62391  44.9742 238.4001 0003127 245.9874 114.0686 15.38471719 64072
CROCUBE                 
1 62394U 24247T   26042.96854561  .00033845  00000+0  85133-3 0  9996
2 62394  44.9731 240.5948 0003322 226.3078 133.7534 15.39409781 63994
